ATLAS CENTAUR R/B       
1 06155U 72065B   26015.04260421  .00000686  00000+0  96895-4 0  9990
2 06155  35.0011 260.1054 0034611 278.6995  80.9786 14.77508311833322
SL-8 R/B                
1 08459U 75112B   26015.42876263  .00000160  00000+0  61295-4 0  9997
2 08459  74.0614 116.8924 0016399 224.7774 135.2058 14.38170183624217
SL-3 R/B                
1 10114U 77057B   26015.46980072  .00008061  00000+0  17954-3 0  9996
2 10114  97.5697 185.1383 0008504 112.0089 248.2063 15.43860248660119
SEASAT 1                
1 10967U 78064A   26015.50931229  .00000197  00000+0  93571-4 0  9998
2 10967 108.0158  13.8916 0001174 277.3723  82.7289 14.46103388498825
SL-14 R/B               
1 11267U 79011B   26015.39261597  .00000506  00000+0  47568-4 0  9995
2 11267  82.5257 147.1284 0014902 232.3764 127.6104 14.91822711520833
SL-8 R/B                
1 11574U 79089B   26015.47685449  .00000266  00000+0  88591-4 0  9990
2 11574  74.0674 189.5369 0015514  11.2176 348.9323 14.42307620428435
SL-14 R/B               
1 11672U 80005B   26015.37066970  .00000495  00000+0  47689-4 0  9997
2 11672  82.5149 357.7986 0015370 347.4174  12.6659 14.90840976468543
SL-8 R/B                
1 12139U 81003B   26015.38635153  .00019277  00000+0  51005-3 0  9995
2 12139  82.9383 339.2326 0271632   4.7713 355.6004 15.08497781306633
SL-3 R/B                
1 12465U 81046B   26015.48166047  .00007150  00000+0  17497-3 0  9990
2 12465  81.2325 353.5450 0018634 199.1639 160.8904 15.40421743430237
SL-3 R/B                
1 12904U 81103B   26015.48645647  .00002518  00000+0  11320-3 0  9992
2 12904  81.1593 275.8216 0014365 101.9871 258.2971 15.20679428965145
SL-3 R/B                
1 13068U 82013B   26015.51798457  .00002791  00000+0  12243-3 0  9995
2 13068  81.1725 223.0618 0022886   1.5474 358.5823 15.21405995396264
SL-3 R/B                
1 13154U 82039B   26015.44293896  .00001696  00000+0  10257-3 0  9994
2 13154  81.1675 277.3135 0029882 138.7702 221.5788 15.09747701373602
