CCSDS_OMM_VERS = 2.0
CREATION_DATE  = 
ORIGINATOR     = 

OBJECT_NAME    = ATLAS CENTAUR R/B
OBJECT_ID      = 1972-065B
CENTER_NAME    = EARTH
REF_FRAME      = TEME
TIME_SYSTEM    = UTC
MEAN_ELEMENT_THEORY = SGP/SGP4

EPOCH          = 2026-01-15T01:01:21.003744
MEAN_MOTION    = 14.77508311
ECCENTRICITY   = .0034611
INCLINATION    = 35.0011
RA_OF_ASC_NODE = 260.1054
ARG_OF_PERICENTER = 278.6995
MEAN_ANOMALY   = 80.9786

EPHEMERIS_TYPE = 0
CLASSIFICATION_TYPE = U
NORAD_CAT_ID   = 6155
ELEMENT_SET_NO = 999
REV_AT_EPOCH   = 83332
BSTAR          = .96895E-4
MEAN_MOTION_DOT = .686E-5
MEAN_MOTION_DDOT = 0

CCSDS_OMM_VERS = 2.0
CREATION_DATE  = 
ORIGINATOR     = 

OBJECT_NAME    = SL-8 R/B
OBJECT_ID      = 1975-112B
CENTER_NAME    = EARTH
REF_FRAME      = TEME
TIME_SYSTEM    = UTC
MEAN_ELEMENT_THEORY = SGP/SGP4

EPOCH          = 2026-01-15T10:17:25.091232
MEAN_MOTION    = 14.38170183
ECCENTRICITY   = .0016399
INCLINATION    = 74.0614
RA_OF_ASC_NODE = 116.8924
ARG_OF_PERICENTER = 224.7774
MEAN_ANOMALY   = 135.2058

EPHEMERIS_TYPE = 0
CLASSIFICATION_TYPE = U
NORAD_CAT_ID   = 8459
ELEMENT_SET_NO = 999
REV_AT_EPOCH   = 62421
BSTAR          = .61295E-4
MEAN_MOTION_DOT = .16E-5
MEAN_MOTION_DDOT = 0

CCSDS_OMM_VERS = 2.0
CREATION_DATE  = 
ORIGINATOR     = 

OBJECT_NAME    = SL-3 R/B
OBJECT_ID      = 1977-057B
CENTER_NAME    = EARTH
REF_FRAME      = TEME
TIME_SYSTEM    = UTC
MEAN_ELEMENT_THEORY = SGP/SGP4

EPOCH          = 2026-01-15T11:16:30.782208
MEAN_MOTION    = 15.43860248
ECCENTRICITY   = .0008504
INCLINATION    = 97.5697
RA_OF_ASC_NODE = 185.1383
ARG_OF_PERICENTER = 112.0089
MEAN_ANOMALY   = 248.2063

EPHEMERIS_TYPE = 0
CLASSIFICATION_TYPE = U
NORAD_CAT_ID   = 10114
ELEMENT_SET_NO = 999
REV_AT_EPOCH   = 66011
BSTAR          = .17954E-3
MEAN_MOTION_DOT = .8061E-4
MEAN_MOTION_DDOT = 0

CCSDS_OMM_VERS = 2.0
CREATION_DATE  = 
ORIGINATOR     = 

OBJECT_NAME    = SEASAT 1
OBJECT_ID      = 1978-064A
CENTER_NAME    = EARTH
REF_FRAME      = TEME
TIME_SYSTEM    = UTC
MEAN_ELEMENT_THEORY = SGP/SGP4

EPOCH          = 2026-01-15T12:13:24.581856
MEAN_MOTION    = 14.46103388
ECCENTRICITY   = .0001174
INCLINATION    = 108.0158
RA_OF_ASC_NODE = 13.8916
ARG_OF_PERICENTER = 277.3723
MEAN_ANOMALY   = 82.7289

EPHEMERIS_TYPE = 0
CLASSIFICATION_TYPE = U
NORAD_CAT_ID   = 10967
ELEMENT_SET_NO = 999
REV_AT_EPOCH   = 49882
BSTAR          = .93571E-4
MEAN_MOTION_DOT = .197E-5
MEAN_MOTION_DDOT = 0

CCSDS_OMM_VERS = 2.0
CREATION_DATE  = 
ORIGINATOR     = 

OBJECT_NAME    = SL-14 R/B
OBJECT_ID      = 1979-011B
CENTER_NAME    = EARTH
REF_FRAME      = TEME
TIME_SYSTEM    = UTC
MEAN_ELEMENT_THEORY = SGP/SGP4

EPOCH          = 2026-01-15T09:25:22.019808
MEAN_MOTION    = 14.91822711
ECCENTRICITY   = .0014902
INCLINATION    = 82.5257
RA_OF_ASC_NODE = 147.1284
ARG_OF_PERICENTER = 232.3764
MEAN_ANOMALY   = 127.6104

EPHEMERIS_TYPE = 0
CLASSIFICATION_TYPE = U
NORAD_CAT_ID   = 11267
ELEMENT_SET_NO = 999
REV_AT_EPOCH   = 52083
BSTAR          = .47568E-4
MEAN_MOTION_DOT = .506E-5
MEAN_MOTION_DDOT = 0

CCSDS_OMM_VERS = 2.0
CREATION_DATE  = 
ORIGINATOR     = 

OBJECT_NAME    = SL-8 R/B
OBJECT_ID      = 1979-089B
CENTER_NAME    = EARTH
REF_FRAME      = TEME
TIME_SYSTEM    = UTC
MEAN_ELEMENT_THEORY = SGP/SGP4

EPOCH          = 2026-01-15T11:26:40.227936
MEAN_MOTION    = 14.42307620
ECCENTRICITY   = .0015514
INCLINATION    = 74.0674
RA_OF_ASC_NODE = 189.5369
ARG_OF_PERICENTER = 11.2176
MEAN_ANOMALY   = 348.9323

EPHEMERIS_TYPE = 0
CLASSIFICATION_TYPE = U
NORAD_CAT_ID   = 11574
ELEMENT_SET_NO = 999
REV_AT_EPOCH   = 42843
BSTAR          = .88591E-4
MEAN_MOTION_DOT = .266E-5
MEAN_MOTION_DDOT = 0

CCSDS_OMM_VERS = 2.0
CREATION_DATE  = 
ORIGINATOR     = 

OBJECT_NAME    = SL-14 R/B
OBJECT_ID      = 1980-005B
CENTER_NAME    = EARTH
REF_FRAME      = TEME
TIME_SYSTEM    = UTC
MEAN_ELEMENT_THEORY = SGP/SGP4

EPOCH          = 2026-01-15T08:53:45.862080
MEAN_MOTION    = 14.90840976
ECCENTRICITY   = .001537
INCLINATION    = 82.5149
RA_OF_ASC_NODE = 357.7986
ARG_OF_PERICENTER = 347.4174
MEAN_ANOMALY   = 12.6659

EPHEMERIS_TYPE = 0
CLASSIFICATION_TYPE = U
NORAD_CAT_ID   = 11672
ELEMENT_SET_NO = 999
REV_AT_EPOCH   = 46854
BSTAR          = .47689E-4
MEAN_MOTION_DOT = .495E-5
MEAN_MOTION_DDOT = 0

CCSDS_OMM_VERS = 2.0
CREATION_DATE  = 
ORIGINATOR     = 

OBJECT_NAME    = SL-8 R/B
OBJECT_ID      = 1981-003B
CENTER_NAME    = EARTH
REF_FRAME      = TEME
TIME_SYSTEM    = UTC
MEAN_ELEMENT_THEORY = SGP/SGP4

EPOCH          = 2026-01-15T09:16:20.772192
MEAN_MOTION    = 15.08497781
ECCENTRICITY   = .0271632
INCLINATION    = 82.9383
RA_OF_ASC_NODE = 339.2326
ARG_OF_PERICENTER = 4.7713
MEAN_ANOMALY   = 355.6004

EPHEMERIS_TYPE = 0
CLASSIFICATION_TYPE = U
NORAD_CAT_ID   = 12139
ELEMENT_SET_NO = 999
REV_AT_EPOCH   = 30663
BSTAR          = .51005E-3
MEAN_MOTION_DOT = .19277E-3
MEAN_MOTION_DDOT = 0

CCSDS_OMM_VERS = 2.0
CREATION_DATE  = 
ORIGINATOR     = 

OBJECT_NAME    = SL-3 R/B
OBJECT_ID      = 1981-046B
CENTER_NAME    = EARTH
REF_FRAME      = TEME
TIME_SYSTEM    = UTC
MEAN_ELEMENT_THEORY = SGP/SGP4

EPOCH          = 2026-01-15T11:33:35.464608
MEAN_MOTION    = 15.40421743
ECCENTRICITY   = .0018634
INCLINATION    = 81.2325
RA_OF_ASC_NODE = 353.5450
ARG_OF_PERICENTER = 199.1639
MEAN_ANOMALY   = 160.8904

EPHEMERIS_TYPE = 0
CLASSIFICATION_TYPE = U
NORAD_CAT_ID   = 12465
ELEMENT_SET_NO = 999
REV_AT_EPOCH   = 43023
BSTAR          = .17497E-3
MEAN_MOTION_DOT = .715E-4
MEAN_MOTION_DDOT = 0

CCSDS_OMM_VERS = 2.0
CREATION_DATE  = 
ORIGINATOR     = 

OBJECT_NAME    = SL-3 R/B
OBJECT_ID      = 1981-103B
CENTER_NAME    = EARTH
REF_FRAME      = TEME
TIME_SYSTEM    = UTC
MEAN_ELEMENT_THEORY = SGP/SGP4

EPOCH          = 2026-01-15T11:40:29.839008
MEAN_MOTION    = 15.20679428
ECCENTRICITY   = .0014365
INCLINATION    = 81.1593
RA_OF_ASC_NODE = 275.8216
ARG_OF_PERICENTER = 101.9871
MEAN_ANOMALY   = 258.2971

EPHEMERIS_TYPE = 0
CLASSIFICATION_TYPE = U
NORAD_CAT_ID   = 12904
ELEMENT_SET_NO = 999
REV_AT_EPOCH   = 96514
BSTAR          = .1132E-3
MEAN_MOTION_DOT = .2518E-4
MEAN_MOTION_DDOT = 0

CCSDS_OMM_VERS = 2.0
CREATION_DATE  = 
ORIGINATOR     = 

OBJECT_NAME    = SL-3 R/B
OBJECT_ID      = 1982-013B
CENTER_NAME    = EARTH
REF_FRAME      = TEME
TIME_SYSTEM    = UTC
MEAN_ELEMENT_THEORY = SGP/SGP4

EPOCH          = 2026-01-15T12:25:53.866848
MEAN_MOTION    = 15.21405995
ECCENTRICITY   = .0022886
INCLINATION    = 81.1725
RA_OF_ASC_NODE = 223.0618
ARG_OF_PERICENTER = 1.5474
MEAN_ANOMALY   = 358.5823

EPHEMERIS_TYPE = 0
CLASSIFICATION_TYPE = U
NORAD_CAT_ID   = 13068
ELEMENT_SET_NO = 999
REV_AT_EPOCH   = 39626
BSTAR          = .12243E-3
MEAN_MOTION_DOT = .2791E-4
MEAN_MOTION_DDOT = 0

CCSDS_OMM_VERS = 2.0
CREATION_DATE  = 
ORIGINATOR     = 

OBJECT_NAME    = SL-3 R/B
OBJECT_ID      = 1982-039B
CENTER_NAME    = EARTH
REF_FRAME      = TEME
TIME_SYSTEM    = UTC
MEAN_ELEMENT_THEORY = SGP/SGP4

EPOCH          = 2026-01-15T10:37:49.926144
MEAN_MOTION    = 15.09747701
ECCENTRICITY   = .0029882
INCLINATION    = 81.1675
RA_OF_ASC_NODE = 277.3135
ARG_OF_PERICENTER = 138.7702
MEAN_ANOMALY   = 221.5788

EPHEMERIS_TYPE = 0
CLASSIFICATION_TYPE = U
NORAD_CAT_ID   = 13154
ELEMENT_SET_NO = 999
REV_AT_EPOCH   = 37360
BSTAR          = .10257E-3
MEAN_MOTION_DOT = .1696E-4
MEAN_MOTION_DDOT = 0

